{
    "links": {
        "self": "http://www.neowsapp.com/rest/v1/neo/3842661?api_key=iIulBulltgU6a56xZRHN4H3l9WmuAYTsLGpBGhQ2"
    },
    "id": "3842661",
    "neo_reference_id": "3842661",
    "name": "(2019 LA)",
    "designation": "2019 LA",
    "nasa_jpl_url": "http://ssd.jpl.nasa.gov/sbdb.cgi?sstr=3842661",
    "absolute_magnitude_h": 23.6,
    "estimated_diameter": {
        "kilometers": {
            "estimated_diameter_min": 0.0506471459,
            "estimated_diameter_max": 0.1132504611
        },
        "meters": {
            "estimated_diameter_min": 50.6471458835,
            "estimated_diameter_max": 113.2504610618
        },
        "miles": {
            "estimated_diameter_min": 0.0314706677,
            "estimated_diameter_max": 0.0703705522
        },
        "feet": {
            "estimated_diameter_min": 166.1651821003,
            "estimated_diameter_max": 371.5566426699
        }
    },
    "is_potentially_hazardous_asteroid": false,
    "close_approach_data": [
        {
            "close_approach_date": "2019-06-07",
            "close_approach_date_full": "2019-Jun-07 20:40",
            "epoch_date_close_approach": 1559940000000,
            "relative_velocity": {
                "kilometers_per_second": "22.2714700266",
                "kilometers_per_hour": "80177.2920959234",
                "miles_per_hour": "49819.0513026031"
            },
            "miss_distance": {
                "astronomical": "0.035542899",
                "lunar": "13.826187711",
                "kilometers": "5317141.98402513",
                "miles": "3303918.824121594"
            },
            "orbiting_body": "Earth"
        }
    ],
    "orbital_data": {
        "orbit_id": "5",
        "orbit_determination_date": "2019-07-27 14:02:16",
        "first_observation_date": "2019-05-26",
        "last_observation_date": "2019-06-06",
        "data_arc_in_days": 11,
        "observations_used": 96,
        "orbit_uncertainty": "8",
        "minimum_orbit_intersection": ".0296073",
        "jupiter_tisserand_invariant": "3.768",
        "epoch_osculation": "2458634.5",
        "eccentricity": ".5463895421392422",
        "semi_major_axis": "1.76029972485988",
        "inclination": "33.5014320997515",
        "ascending_node_longitude": "74.09393445707354",
        "orbital_period": "853.0576039253182",
        "perihelion_distance": ".7984903641658562",
        "perihelion_argument": "251.5607618397892",
        "aphelion_distance": "2.722109085553904",
        "perihelion_time": "2458691.516939519329",
        "mean_anomaly": "335.9382037830643",
        "mean_motion": ".4220113604796102",
        "equinox": "J2000",
        "orbit_class": {
            "orbit_class_type": "APO",
            "orbit_class_description": "Near-Earth asteroid orbits which cross the Earth’s orbit similar to that of 1862 Apollo",
            "orbit_class_range": "a (semi-major axis) > 1.0 AU; q (perihelion) < 1.017 AU"
        }
    },
    "is_sentry_object": false
}